{
  "type": "FeatureCollection",
  "features": [
    {
      "type": "Feature",
      "properties": {
        "norad_id": 42988,
        "name": "SKYSAT-C10",
        "group": "resource",
        "lat": -79.79788508748787,
        "lon": -106.13019388562554,
        "alt_km": 480.45958862610223,
        "timestamp": "2025-12-15T10:55:20.787172+00:00",
        "meta_object_name": "SKYSAT-C10",
        "meta_object_id": "2017-068B",
        "meta_epoch": "2025-12-14T21:14:18.766752",
        "meta_mean_motion": 15.32114627,
        "meta_eccentricity": 0.00054127,
        "meta_inclination": 97.4254,
        "meta_ra_of_asc_node": 119.7413,
        "meta_arg_of_pericenter": 97.5408,
        "meta_mean_anomaly": 262.6449,
        "meta_ephemeris_type": 0,
        "meta_classification_type": "U",
        "meta_norad_cat_id": 42988,
        "meta_element_set_no": 999,
        "meta_rev_at_epoch": 45412,
        "meta_bstar": 0.00024968168,
        "meta_mean_motion_dot": 7.666e-05,
        "meta_mean_motion_ddot": 0,
        "tle_line1": "1 42988U 17068B   25348.88493943  .00007666  00000+0  24968-3 0  9999",
        "tle_line2": "2 42988  97.4254 119.7413 0005412  97.5408 262.6449 15.32114627454126"
      },
      "geometry": {
        "type": "Point",
        "coordinates": [
          -106.13019388562554,
          -79.79788508748787
        ]
      }
    },
    {
      "type": "Feature",
      "properties": {
        "norad_id": 42989,
        "name": "SKYSAT-C9",
        "group": "resource",
        "lat": 30.014672129355432,
        "lon": -55.953497088239224,
        "alt_km": 453.77641846407096,
        "timestamp": "2025-12-15T10:55:20.787182+00:00",
        "meta_object_name": "SKYSAT-C9",
        "meta_object_id": "2017-068C",
        "meta_epoch": "2025-12-14T20:12:13.586688",
        "meta_mean_motion": 15.3611159,
        "meta_eccentricity": 0.00106147,
        "meta_inclination": 97.4184,
        "meta_ra_of_asc_node": 119.1117,
        "meta_arg_of_pericenter": 80.8233,
        "meta_mean_anomaly": 279.4211,
        "meta_ephemeris_type": 0,
        "meta_classification_type": "U",
        "meta_norad_cat_id": 42989,
        "meta_element_set_no": 999,
        "meta_rev_at_epoch": 45440,
        "meta_bstar": 0.00029043949,
        "meta_mean_motion_dot": 0.00010155,
        "meta_mean_motion_ddot": 0,
        "tle_line1": "1 42989U 17068C   25348.84182392  .00010155  00000+0  29044-3 0  9996",
        "tle_line2": "2 42989  97.4184 119.1117 0010614  80.8233 279.4211 15.36111590454409"
      },
      "geometry": {
        "type": "Point",
        "coordinates": [
          -55.953497088239224,
          30.014672129355432
        ]
      }
    },
    {
      "type": "Feature",
      "properties": {
        "norad_id": 42990,
        "name": "SKYSAT-C8",
        "group": "resource",
        "lat": 82.56219020569986,
        "lon": 31.585211371183984,
        "alt_km": 459.85319577309383,
        "timestamp": "2025-12-15T10:55:20.787192+00:00",
        "meta_object_name": "SKYSAT-C8",
        "meta_object_id": "2017-068D",
        "meta_epoch": "2025-12-14T21:59:59.399808",
        "meta_mean_motion": 15.32974211,
        "meta_eccentricity": 0.00014519,
        "meta_inclination": 97.4276,
        "meta_ra_of_asc_node": 118.9259,
        "meta_arg_of_pericenter": 337.6288,
        "meta_mean_anomaly": 22.489,
        "meta_ephemeris_type": 0,
        "meta_classification_type": "U",
        "meta_norad_cat_id": 42990,
        "meta_element_set_no": 999,
        "meta_rev_at_epoch": 45404,
        "meta_bstar": 0.00026657862,
        "meta_mean_motion_dot": 8.412e-05,
        "meta_mean_motion_ddot": 0,
        "tle_line1": "1 42990U 17068D   25348.91665972  .00008412  00000+0  26658-3 0  9997",
        "tle_line2": "2 42990  97.4276 118.9259 0001451 337.6288  22.4890 15.32974211454041"
      },
      "geometry": {
        "type": "Point",
        "coordinates": [
          31.585211371183984,
          82.56219020569986
        ]
      }
    },
    {
      "type": "Feature",
      "properties": {
        "norad_id": 42991,
        "name": "SKYSAT-C7",
        "group": "resource",
        "lat": -59.9723117523509,
        "lon": 133.55100277221925,
        "alt_km": 477.54247348232275,
        "timestamp": "2025-12-15T10:55:20.787202+00:00",
        "meta_object_name": "SKYSAT-C7",
        "meta_object_id": "2017-068E",
        "meta_epoch": "2025-12-14T21:04:57.373248",
        "meta_mean_motion": 15.32377414,
        "meta_eccentricity": 0.00075354,
        "meta_inclination": 97.4281,
        "meta_ra_of_asc_node": 119.9269,
        "meta_arg_of_pericenter": 50.2103,
        "meta_mean_anomaly": 309.9801,
        "meta_ephemeris_type": 0,
        "meta_classification_type": "U",
        "meta_norad_cat_id": 42991,
        "meta_element_set_no": 999,
        "meta_rev_at_epoch": 45410,
        "meta_bstar": 0.00025420608,
        "meta_mean_motion_dot": 7.875e-05,
        "meta_mean_motion_ddot": 0,
        "tle_line1": "1 42991U 17068E   25348.87844182  .00007875  00000+0  25421-3 0  9994",
        "tle_line2": "2 42991  97.4281 119.9269 0007535  50.2103 309.9801 15.32377414454107"
      },
      "geometry": {
        "type": "Point",
        "coordinates": [
          133.55100277221925,
          -59.9723117523509
        ]
      }
    },
    {
      "type": "Feature",
      "properties": {
        "norad_id": 42992,
        "name": "SKYSAT-C6",
        "group": "resource",
        "lat": 47.43124311695519,
        "lon": 112.77208429676968,
        "alt_km": 463.9047240621503,
        "timestamp": "2025-12-15T10:55:20.787213+00:00",
        "meta_object_name": "SKYSAT-C6",
        "meta_object_id": "2017-068F",
        "meta_epoch": "2025-12-14T22:10:09.863328",
        "meta_mean_motion": 15.31539332,
        "meta_eccentricity": 0.00051246,
        "meta_inclination": 97.4317,
        "meta_ra_of_asc_node": 120.4092,
        "meta_arg_of_pericenter": 76.3845,
        "meta_mean_anomaly": 283.7967,
        "meta_ephemeris_type": 0,
        "meta_classification_type": "U",
        "meta_norad_cat_id": 42992,
        "meta_element_set_no": 999,
        "meta_rev_at_epoch": 45409,
        "meta_bstar": 0.00026281287,
        "meta_mean_motion_dot": 7.929e-05,
        "meta_mean_motion_ddot": 0,
        "tle_line1": "1 42992U 17068F   25348.92372527  .00007929  00000+0  26281-3 0  9995",
        "tle_line2": "2 42992  97.4317 120.4092 0005124  76.3845 283.7967 15.31539332454091"
      },
      "geometry": {
        "type": "Point",
        "coordinates": [
          112.77208429676968,
          47.43124311695519
        ]
      }
    },
    {
      "type": "Feature",
      "properties": {
        "norad_id": 43111,
        "name": "CARTOSAT-2F",
        "group": "resource",
        "lat": 34.6673631237838,
        "lon": 41.869501497258526,
        "alt_km": 505.92985329183375,
        "timestamp": "2025-12-15T10:55:20.787223+00:00",
        "meta_object_name": "CARTOSAT-2F",
        "meta_object_id": "2018-004A",
        "meta_epoch": "2025-12-14T22:07:24.201696",
        "meta_mean_motion": 15.19298943,
        "meta_eccentricity": 0.00011078,
        "meta_inclination": 97.4318,
        "meta_ra_of_asc_node": 46.5242,
        "meta_arg_of_pericenter": 140.7472,
        "meta_mean_anomaly": 219.3843,
        "meta_ephemeris_type": 0,
        "meta_classification_type": "U",
        "meta_norad_cat_id": 43111,
        "meta_element_set_no": 999,
        "meta_rev_at_epoch": 43935,
        "meta_bstar": 0.00015836716,
        "meta_mean_motion_dot": 3.274e-05,
        "meta_mean_motion_ddot": 0,
        "tle_line1": "1 43111U 18004A   25348.92180789  .00003274  00000+0  15837-3 0  9991",
        "tle_line2": "2 43111  97.4318  46.5242 0001107 140.7472 219.3843 15.19298943439356"
      },
      "geometry": {
        "type": "Point",
        "coordinates": [
          41.869501497258526,
          34.6673631237838
        ]
      }
    },
    {
      "type": "Feature",
      "properties": {
        "norad_id": 43259,
        "name": "GAOFEN-1 02",
        "group": "resource",
        "lat": 74.55599860048362,
        "lon": -101.80694461934942,
        "alt_km": 633.8280390445425,
        "timestamp": "2025-12-15T10:55:20.787233+00:00",
        "meta_object_name": "GAOFEN-1 02",
        "meta_object_id": "2018-031A",
        "meta_epoch": "2025-12-14T23:04:15.394656",
        "meta_mean_motion": 14.76421871,
        "meta_eccentricity": 0.00018531,
        "meta_inclination": 98.0808,
        "meta_ra_of_asc_node": 46.7514,
        "meta_arg_of_pericenter": 208.1344,
        "meta_mean_anomaly": 151.9765,
        "meta_ephemeris_type": 0,
        "meta_classification_type": "U",
        "meta_norad_cat_id": 43259,
        "meta_element_set_no": 999,
        "meta_rev_at_epoch": 41551,
        "meta_bstar": 0.00015672523,
        "meta_mean_motion_dot": 1.038e-05,
        "meta_mean_motion_ddot": 0,
        "tle_line1": "1 43259U 18031A   25348.96128929  .00001038  00000+0  15673-3 0  9990",
        "tle_line2": "2 43259  98.0808  46.7514 0001853 208.1344 151.9765 14.76421871415515"
      },
      "geometry": {
        "type": "Point",
        "coordinates": [
          -101.80694461934942,
          74.55599860048362
        ]
      }
    }
  ]
}